{
  "type": "FeatureCollection",
  "features": [
    {
      "type": "Feature",
      "properties": {
        "norad_id": 40894,
        "name": "GAOFEN-9 01",
        "group": "resource",
        "lat": 40.646395355283694,
        "lon": -148.43319367764892,
        "alt_km": 622.6024601407071,
        "timestamp": "2025-12-11T22:43:46.928780+00:00",
        "meta_object_name": "GAOFEN-9 01",
        "meta_object_id": "2015-047A",
        "meta_epoch": "2025-12-11T14:00:29.050848",
        "meta_mean_motion": 14.8242323,
        "meta_eccentricity": 0.00284706,
        "meta_inclination": 97.6546,
        "meta_ra_of_asc_node": 24.5889,
        "meta_arg_of_pericenter": 37.9872,
        "meta_mean_anomaly": 322.3343,
        "meta_ephemeris_type": 0,
        "meta_classification_type": "U",
        "meta_norad_cat_id": 40894,
        "meta_element_set_no": 999,
        "meta_rev_at_epoch": 55239,
        "meta_bstar": 0.00048670353,
        "meta_mean_motion_dot": 3.878e-05,
        "meta_mean_motion_ddot": 0,
        "tle_line1": "1 40894U 15047A   25345.58366957  .00003878  00000+0  48670-3 0  9993",
        "tle_line2": "2 40894  97.6546  24.5889 0028470  37.9872 322.3343 14.82423230552390"
      },
      "geometry": {
        "type": "Point",
        "coordinates": [
          -148.43319367764892,
          40.646395355283694
        ]
      }
    },
    {
      "type": "Feature",
      "properties": {
        "norad_id": 41026,
        "name": "YAOGAN-28",
        "group": "resource",
        "lat": 9.278924006187163,
        "lon": -55.04161254833746,
        "alt_km": 488.29799308973725,
        "timestamp": "2025-12-11T22:43:46.928790+00:00",
        "meta_object_name": "YAOGAN-28",
        "meta_object_id": "2015-064A",
        "meta_epoch": "2025-12-11T15:40:58.641600",
        "meta_mean_motion": 15.24324206,
        "meta_eccentricity": 0.00123595,
        "meta_inclination": 97.2805,
        "meta_ra_of_asc_node": 123.4763,
        "meta_arg_of_pericenter": 129.4381,
        "meta_mean_anomaly": 230.7953,
        "meta_ephemeris_type": 0,
        "meta_classification_type": "U",
        "meta_norad_cat_id": 41026,
        "meta_element_set_no": 999,
        "meta_rev_at_epoch": 56208,
        "meta_bstar": 0.00053221842,
        "meta_mean_motion_dot": 0.00012984,
        "meta_mean_motion_ddot": 0,
        "tle_line1": "1 41026U 15064A   25345.65345650  .00012984  00000+0  53222-3 0  9992",
        "tle_line2": "2 41026  97.2805 123.4763 0012359 129.4381 230.7953 15.24324206562089"
      },
      "geometry": {
        "type": "Point",
        "coordinates": [
          -55.04161254833746,
          9.278924006187163
        ]
      }
    },
    {
      "type": "Feature",
      "properties": {
        "norad_id": 41038,
        "name": "YAOGAN-29",
        "group": "resource",
        "lat": 24.612038624792525,
        "lon": 5.41167809106971,
        "alt_km": 619.4828571165099,
        "timestamp": "2025-12-11T22:43:46.928800+00:00",
        "meta_object_name": "YAOGAN-29",
        "meta_object_id": "2015-069A",
        "meta_epoch": "2025-12-11T14:31:14.154816",
        "meta_mean_motion": 14.82878667,
        "meta_eccentricity": 2.972e-05,
        "meta_inclination": 98.022,
        "meta_ra_of_asc_node": 8.7726,
        "meta_arg_of_pericenter": 334.709,
        "meta_mean_anomaly": 25.4109,
        "meta_ephemeris_type": 0,
        "meta_classification_type": "U",
        "meta_norad_cat_id": 41038,
        "meta_element_set_no": 999,
        "meta_rev_at_epoch": 54282,
        "meta_bstar": 5.0054982e-05,
        "meta_mean_motion_dot": 3.51e-06,
        "meta_mean_motion_ddot": 0,
        "tle_line1": "1 41038U 15069A   25345.60502494  .00000351  00000+0  50055-4 0  9993",
        "tle_line2": "2 41038  98.0220   8.7726 0000297 334.7090  25.4109 14.82878667542822"
      },
      "geometry": {
        "type": "Point",
        "coordinates": [
          5.41167809106971,
          24.612038624792525
        ]
      }
    },
    {
      "type": "Feature",
      "properties": {
        "norad_id": 41167,
        "name": "KENT RIDGE 1",
        "group": "resource",
        "lat": 8.866177364748028,
        "lon": 1.3399964014218462,
        "alt_km": 491.59217878267464,
        "timestamp": "2025-12-11T22:43:46.928810+00:00",
        "meta_object_name": "KENT RIDGE 1",
        "meta_object_id": "2015-077B",
        "meta_epoch": "2025-12-10T22:30:20.164032",
        "meta_mean_motion": 15.21613004,
        "meta_eccentricity": 0.0008534,
        "meta_inclination": 14.9787,
        "meta_ra_of_asc_node": 224.5126,
        "meta_arg_of_pericenter": 105.1226,
        "meta_mean_anomaly": 255.004,
        "meta_ephemeris_type": 0,
        "meta_classification_type": "U",
        "meta_norad_cat_id": 41167,
        "meta_element_set_no": 999,
        "meta_rev_at_epoch": 55236,
        "meta_bstar": 0.000254,
        "meta_mean_motion_dot": 6.673e-05,
        "meta_mean_motion_ddot": 0,
        "tle_line1": "1 41167U 15077B   25344.93773338  .00006673  00000+0  25400-3 0  9995",
        "tle_line2": "2 41167  14.9787 224.5126 0008534 105.1226 255.0040 15.21613004552366"
      },
      "geometry": {
        "type": "Point",
        "coordinates": [
          1.3399964014218462,
          8.866177364748028
        ]
      }
    },
    {
      "type": "Feature",
      "properties": {
        "norad_id": 41194,
        "name": "GAOFEN-4",
        "group": "resource",
        "lat": 0.1640544334994242,
        "lon": 167.5235765115966,
        "alt_km": 35772.74163263472,
        "timestamp": "2025-12-11T22:43:46.928825+00:00",
        "meta_object_name": "GAOFEN-4",
        "meta_object_id": "2015-083A",
        "meta_epoch": "2025-12-11T15:47:15.837216",
        "meta_mean_motion": 1.00269894,
        "meta_eccentricity": 0.00035179,
        "meta_inclination": 0.1681,
        "meta_ra_of_asc_node": 80.9311,
        "meta_arg_of_pericenter": 106.4453,
        "meta_mean_anomaly": 235.7529,
        "meta_ephemeris_type": 0,
        "meta_classification_type": "U",
        "meta_norad_cat_id": 41194,
        "meta_element_set_no": 999,
        "meta_rev_at_epoch": 3664,
        "meta_bstar": 0,
        "meta_mean_motion_dot": -3.27e-06,
        "meta_mean_motion_ddot": 0,
        "tle_line1": "1 41194U 15083A   25345.65782219 -.00000327  00000+0  00000+0 0  9996",
        "tle_line2": "2 41194   0.1681  80.9311 0003517 106.4453 235.7529  1.00269894 36649"
      },
      "geometry": {
        "type": "Point",
        "coordinates": [
          167.5235765115966,
          0.1640544334994242
        ]
      }
    },
    {
      "type": "Feature",
      "properties": {
        "norad_id": 41240,
        "name": "JASON-3",
        "group": "resource",
        "lat": -50.38799161739986,
        "lon": 11.989327519888088,
        "alt_km": 1312.3384379314348,
        "timestamp": "2025-12-11T22:43:46.928837+00:00",
        "meta_object_name": "JASON-3",
        "meta_object_id": "2016-002A",
        "meta_epoch": "2025-12-11T14:02:38.208480",
        "meta_mean_motion": 12.87626474,
        "meta_eccentricity": 0.00071495,
        "meta_inclination": 66.0389,
        "meta_ra_of_asc_node": 160.2516,
        "meta_arg_of_pericenter": 270.7343,
        "meta_mean_anomaly": 89.2857,
        "meta_ephemeris_type": 0,
        "meta_classification_type": "U",
        "meta_norad_cat_id": 41240,
        "meta_element_set_no": 999,
        "meta_rev_at_epoch": 46309,
        "meta_bstar": 9.5037222e-05,
        "meta_mean_motion_dot": -3.8e-07,
        "meta_mean_motion_ddot": 0,
        "tle_line1": "1 41240U 16002A   25345.58516445 -.00000038  00000+0  95037-4 0  9996",
        "tle_line2": "2 41240  66.0389 160.2516 0007149 270.7343  89.2857 12.87626474463091"
      },
      "geometry": {
        "type": "Point",
        "coordinates": [
          11.989327519888088,
          -50.38799161739986
        ]
      }
    },
    {
      "type": "Feature",
      "properties": {
        "norad_id": 41335,
        "name": "SENTINEL-3A",
        "group": "resource",
        "lat": -62.949069309484216,
        "lon": -146.31652678656098,
        "alt_km": 810.3907039881042,
        "timestamp": "2025-12-11T22:43:46.928847+00:00",
        "meta_object_name": "SENTINEL-3A",
        "meta_object_id": "2016-011A",
        "meta_epoch": "2025-12-11T08:07:25.470336",
        "meta_mean_motion": 14.26745913,
        "meta_eccentricity": 9.451e-05,
        "meta_inclination": 98.6209,
        "meta_ra_of_asc_node": 50.3668,
        "meta_arg_of_pericenter": 93.9278,
        "meta_mean_anomaly": 266.2011,
        "meta_ephemeris_type": 0,
        "meta_classification_type": "U",
        "meta_norad_cat_id": 41335,
        "meta_element_set_no": 999,
        "meta_rev_at_epoch": 51127,
        "meta_bstar": 0.00012081977,
        "meta_mean_motion_dot": 2.49e-06,
        "meta_mean_motion_ddot": 0,
        "tle_line1": "1 41335U 16011A   25345.33848924  .00000249  00000+0  12082-3 0  9995",
        "tle_line2": "2 41335  98.6209  50.3668 0000945  93.9278 266.2011 14.26745913511272"
      },
      "geometry": {
        "type": "Point",
        "coordinates": [
          -146.31652678656098,
          -62.949069309484216
        ]
      }
    }
  ]
}